{
  "type": "FeatureCollection",
  "features": [
    {
      "type": "Feature",
      "properties": {
        "norad_id": 63632,
        "name": "SHENZHOU-20 (SZ-20)",
        "group": "stations",
        "lat": 8.22491876853377,
        "lon": 76.41750883446582,
        "alt_km": 385.269323821296,
        "timestamp": "2025-12-04T10:51:48.895564+00:00",
        "meta_object_name": "SHENZHOU-20 (SZ-20)",
        "meta_object_id": "2025-082A",
        "meta_epoch": "2025-12-03T17:53:39.447744",
        "meta_mean_motion": 15.58598848,
        "meta_eccentricity": 0.00100687,
        "meta_inclination": 41.4679,
        "meta_ra_of_asc_node": 71.2873,
        "meta_arg_of_pericenter": 322.1315,
        "meta_mean_anomaly": 37.8814,
        "meta_ephemeris_type": 0,
        "meta_classification_type": "U",
        "meta_norad_cat_id": 63632,
        "meta_element_set_no": 999,
        "meta_rev_at_epoch": 25530,
        "meta_bstar": 0.00035132982,
        "meta_mean_motion_dot": 0.00027527,
        "meta_mean_motion_ddot": 0,
        "tle_line1": "1 63632U 25082A   25337.74559546  .00027527  00000+0  35133-3 0  9992",
        "tle_line2": "2 63632  41.4679  71.2873 0010068 322.1315  37.8814 15.58598848255300"
      },
      "geometry": {
        "type": "Point",
        "coordinates": [
          76.41750883446582,
          8.22491876853377
        ]
      }
    },
    {
      "type": "Feature",
      "properties": {
        "norad_id": 64751,
        "name": "PROGRESS-MS 31",
        "group": "stations",
        "lat": -25.764253784363877,
        "lon": 25.989059718622507,
        "alt_km": 419.7496603505497,
        "timestamp": "2025-12-04T10:51:48.895574+00:00",
        "meta_object_name": "PROGRESS-MS 31",
        "meta_object_id": "2025-146A",
        "meta_epoch": "2025-12-03T21:33:39.277728",
        "meta_mean_motion": 15.4928465,
        "meta_eccentricity": 0.00035922,
        "meta_inclination": 51.6303,
        "meta_ra_of_asc_node": 186.2514,
        "meta_arg_of_pericenter": 201.3576,
        "meta_mean_anomaly": 158.7263,
        "meta_ephemeris_type": 0,
        "meta_classification_type": "U",
        "meta_norad_cat_id": 64751,
        "meta_element_set_no": 999,
        "meta_rev_at_epoch": 675,
        "meta_bstar": 0.00025253496,
        "meta_mean_motion_dot": 0.00013627,
        "meta_mean_motion_ddot": 0,
        "tle_line1": "1 64751U 25146A   25337.89837127  .00013627  00000+0  25253-3 0  9994",
        "tle_line2": "2 64751  51.6303 186.2514 0003592 201.3576 158.7263 15.49284650  6757"
      },
      "geometry": {
        "type": "Point",
        "coordinates": [
          25.989059718622507,
          -25.764253784363877
        ]
      }
    },
    {
      "type": "Feature",
      "properties": {
        "norad_id": 64786,
        "name": "TIANZHOU-9",
        "group": "stations",
        "lat": 8.224919746980735,
        "lon": 76.41750997944462,
        "alt_km": 385.2693238052916,
        "timestamp": "2025-12-04T10:51:48.895587+00:00",
        "meta_object_name": "TIANZHOU-9",
        "meta_object_id": "2025-149A",
        "meta_epoch": "2025-12-03T17:53:39.447744",
        "meta_mean_motion": 15.58598848,
        "meta_eccentricity": 0.00100687,
        "meta_inclination": 41.4679,
        "meta_ra_of_asc_node": 71.2873,
        "meta_arg_of_pericenter": 322.1315,
        "meta_mean_anomaly": 37.8814,
        "meta_ephemeris_type": 0,
        "meta_classification_type": "U",
        "meta_norad_cat_id": 64786,
        "meta_element_set_no": 999,
        "meta_rev_at_epoch": 25530,
        "meta_bstar": 0.00035132982,
        "meta_mean_motion_dot": 0.00027527,
        "meta_mean_motion_ddot": 0,
        "tle_line1": "1 64786U 25149A   25337.74559546  .00027527  00000+0  35133-3 0  9997",
        "tle_line2": "2 64786  41.4679  71.2873 0010068 322.1315  37.8814 15.58598848255301"
      },
      "geometry": {
        "type": "Point",
        "coordinates": [
          76.41750997944462,
          8.224919746980735
        ]
      }
    },
    {
      "type": "Feature",
      "properties": {
        "norad_id": 65077,
        "name": "CREW DRAGON 11",
        "group": "stations",
        "lat": -25.764254953718968,
        "lon": 25.989060953447236,
        "alt_km": 419.7496604484604,
        "timestamp": "2025-12-04T10:51:48.895599+00:00",
        "meta_object_name": "CREW DRAGON 11",
        "meta_object_id": "2025-166A",
        "meta_epoch": "2025-12-03T21:33:39.277728",
        "meta_mean_motion": 15.4928465,
        "meta_eccentricity": 0.00035922,
        "meta_inclination": 51.6303,
        "meta_ra_of_asc_node": 186.2514,
        "meta_arg_of_pericenter": 201.3576,
        "meta_mean_anomaly": 158.7263,
        "meta_ephemeris_type": 0,
        "meta_classification_type": "U",
        "meta_norad_cat_id": 65077,
        "meta_element_set_no": 999,
        "meta_rev_at_epoch": 214,
        "meta_bstar": 0.00025253496,
        "meta_mean_motion_dot": 0.00013627,
        "meta_mean_motion_ddot": 0,
        "tle_line1": "1 65077U 25166A   25337.89837127  .00013627  00000+0  25253-3 0  9998",
        "tle_line2": "2 65077  51.6303 186.2514 0003592 201.3576 158.7263 15.49284650  2148"
      },
      "geometry": {
        "type": "Point",
        "coordinates": [
          25.989060953447236,
          -25.764254953718968
        ]
      }
    },
    {
      "type": "Feature",
      "properties": {
        "norad_id": 65304,
        "name": "DRAGON CRS-33",
        "group": "stations",
        "lat": -25.764255421461076,
        "lon": 25.989061447377228,
        "alt_km": 419.74966048762326,
        "timestamp": "2025-12-04T10:51:48.895609+00:00",
        "meta_object_name": "DRAGON CRS-33",
        "meta_object_id": "2025-186A",
        "meta_epoch": "2025-12-03T21:33:39.277728",
        "meta_mean_motion": 15.4928465,
        "meta_eccentricity": 0.00035922,
        "meta_inclination": 51.6303,
        "meta_ra_of_asc_node": 186.2514,
        "meta_arg_of_pericenter": 201.3576,
        "meta_mean_anomaly": 158.7263,
        "meta_ephemeris_type": 0,
        "meta_classification_type": "U",
        "meta_norad_cat_id": 65304,
        "meta_element_set_no": 999,
        "meta_rev_at_epoch": 11,
        "meta_bstar": 0.00025253496,
        "meta_mean_motion_dot": 0.00013627,
        "meta_mean_motion_ddot": 0,
        "tle_line1": "1 65304U 25186A   25337.89837127  .00013627  00000+0  25253-3 0  9993",
        "tle_line2": "2 65304  51.6303 186.2514 0003592 201.3576 158.7263 15.49284650   116"
      },
      "geometry": {
        "type": "Point",
        "coordinates": [
          25.989061447377228,
          -25.764255421461076
        ]
      }
    },
    {
      "type": "Feature",
      "properties": {
        "norad_id": 65586,
        "name": "PROGRESS-MS 32",
        "group": "stations",
        "lat": -25.76425593597701,
        "lon": 25.98906199069981,
        "alt_km": 419.7496605307024,
        "timestamp": "2025-12-04T10:51:48.895620+00:00",
        "meta_object_name": "PROGRESS-MS 32",
        "meta_object_id": "2025-204A",
        "meta_epoch": "2025-12-03T21:33:39.277728",
        "meta_mean_motion": 15.4928465,
        "meta_eccentricity": 0.00035922,
        "meta_inclination": 51.6303,
        "meta_ra_of_asc_node": 186.2514,
        "meta_arg_of_pericenter": 201.3576,
        "meta_mean_anomaly": 158.7263,
        "meta_ephemeris_type": 0,
        "meta_classification_type": "U",
        "meta_norad_cat_id": 65586,
        "meta_element_set_no": 999,
        "meta_rev_at_epoch": 27,
        "meta_bstar": 0.00025253496,
        "meta_mean_motion_dot": 0.00013627,
        "meta_mean_motion_ddot": 0,
        "tle_line1": "1 65586U 25204A   25337.89837127  .00013627  00000+0  25253-3 0  9996",
        "tle_line2": "2 65586  51.6303 186.2514 0003592 201.3576 158.7263 15.49284650   275"
      },
      "geometry": {
        "type": "Point",
        "coordinates": [
          25.98906199069981,
          -25.76425593597701
        ]
      }
    },
    {
      "type": "Feature",
      "properties": {
        "norad_id": 65616,
        "name": "CYGNUS NG-23",
        "group": "stations",
        "lat": -25.76425640371912,
        "lon": 25.989062484629848,
        "alt_km": 419.7496605698652,
        "timestamp": "2025-12-04T10:51:48.895630+00:00",
        "meta_object_name": "CYGNUS NG-23",
        "meta_object_id": "2025-208A",
        "meta_epoch": "2025-12-03T21:33:39.277728",
        "meta_mean_motion": 15.4928465,
        "meta_eccentricity": 0.00035922,
        "meta_inclination": 51.6303,
        "meta_ra_of_asc_node": 186.2514,
        "meta_arg_of_pericenter": 201.3576,
        "meta_mean_anomaly": 158.7263,
        "meta_ephemeris_type": 0,
        "meta_classification_type": "U",
        "meta_norad_cat_id": 65616,
        "meta_element_set_no": 999,
        "meta_rev_at_epoch": 22,
        "meta_bstar": 0.00025253496,
        "meta_mean_motion_dot": 0.00013627,
        "meta_mean_motion_ddot": 0,
        "tle_line1": "1 65616U 25208A   25337.89837127  .00013627  00000+0  25253-3 0  9994",
        "tle_line2": "2 65616  51.6303 186.2514 0003592 201.3576 158.7263 15.49284650   224"
      },
      "geometry": {
        "type": "Point",
        "coordinates": [
          25.989062484629848,
          -25.76425640371912
        ]
      }
    }
  ]
}